[{"OBJECT_NAME":"STARLINK-1816","OBJECT_ID":"2020-073AW","EPOCH":"2026-03-10T00:00:02.999808","MEAN_MOTION":15.7373021,"ECCENTRICITY":0.00013796,"INCLINATION":53.0412,"RA_OF_ASC_NODE":197.1696,"ARG_OF_PERICENTER":136.5835,"MEAN_ANOMALY":114.6456,"EPHEMERIS_TYPE":0,"CLASSIFICATION_TYPE":"U","NORAD_CAT_ID":46714,"ELEMENT_SET_NO":999,"REV_AT_EPOCH":597,"BSTAR":0.00068317035,"MEAN_MOTION_DOT":0.00098636,"MEAN_MOTION_DDOT":0},{"OBJECT_NAME":"STARLINK-11477 [DTC]","OBJECT_ID":"2024-254K","EPOCH":"2026-03-09T22:00:01.999584","MEAN_MOTION":15.72517566,"ECCENTRICITY":0.000177,"INCLINATION":42.9998,"RA_OF_ASC_NODE":221.6093,"ARG_OF_PERICENTER":280.9575,"MEAN_ANOMALY":199.6099,"EPHEMERIS_TYPE":0,"CLASSIFICATION_TYPE":"U","NORAD_CAT_ID":62471,"ELEMENT_SET_NO":999,"REV_AT_EPOCH":593,"BSTAR":0.0017627127,"MEAN_MOTION_DOT":0.00249771,"MEAN_MOTION_DDOT":0}]
